{"type": "FeatureCollection", "features": [ {"type": "Feature", "properties": {"norad_id": 42917, "name": "QZS-3 (QZSS/PRN 199)", "group": "gnss", "lat": -0.0522294472030579, "lon": 106.06241854687688, "alt_km": 35792.34950640305, "timestamp": "2025-12-02T17:49:12.270371+00:00", "meta": {"OBJECT_NAME": "QZS-3 (QZSS/PRN 199)", "OBJECT_ID": "2017-048A", "EPOCH": "2025-12-02T08:53:51.838368", "MEAN_MOTION": 1.00276438, "ECCENTRICITY": 0.000211, "INCLINATION": 0.0754, "RA_OF_ASC_NODE": 224.5611, "ARG_OF_PERICENTER": 28.6781, "MEAN_ANOMALY": 78.6565, "EPHEMERIS_TYPE": 0, "CLASSIFICATION_TYPE": "U", "NORAD_CAT_ID": 42917, "ELEMENT_SET_NO": 999, "REV_AT_EPOCH": 3028, "BSTAR": 0, "MEAN_MOTION_DOT": -3.27e-06, "MEAN_MOTION_DDOT": 0}, "tle": {"line1": "1 42917U 17048A   25336.37073887 -.00000327  00000+0  00000+0 0  9996", "line2": "2 42917   0.0754 224.5611 0002110  28.6781  78.6565  1.00276438 30289"}}, "geometry": {"type": "Point", "coordinates": [106.06241854687688, -0.0522294472030579]}}, {"type": "Feature", "properties": {"norad_id": 42939, "name": "COSMOS 2522 (752)", "group": "gnss", "lat": -2.9702874434870536, "lon": 20.017294817875776, "alt_km": 19118.554372072726, "timestamp": "2025-12-02T17:49:12.270382+00:00", "meta": {"OBJECT_NAME": "COSMOS 2522 (752)", "OBJECT_ID": "2017-055A", "EPOCH": "2025-12-02T00:49:19.068672", "MEAN_MOTION": 2.13101864, "ECCENTRICITY": 0.0006552, "INCLINATION": 64.0757, "RA_OF_ASC_NODE": 198.5937, "ARG_OF_PERICENTER": 226.1322, "MEAN_ANOMALY": 133.9083, "EPHEMERIS_TYPE": 0, "CLASSIFICATION_TYPE": "U", "NORAD_CAT_ID": 42939, "ELEMENT_SET_NO": 999, "REV_AT_EPOCH": 6377, "BSTAR": 0, "MEAN_MOTION_DOT": 1.06e-06, "MEAN_MOTION_DDOT": 0}, "tle": {"line1": "1 42939U 17055A   25336.03424848  .00000106  00000+0  00000+0 0  9992", "line2": "2 42939  64.0757 198.5937 0006552 226.1322 133.9083  2.13101864 63772"}}, "geometry": {"type": "Point", "coordinates": [20.017294817875776, -2.9702874434870536]}}, {"type": "Feature", "properties": {"norad_id": 42965, "name": "QZS-4 (QZSS/PRN 195)", "group": "gnss", "lat": 31.834649590433383, "lon": 118.7474695193267, "alt_km": 38346.45452688182, "timestamp": "2025-12-02T17:49:12.270394+00:00", "meta": {"OBJECT_NAME": "QZS-4 (QZSS/PRN 195)", "OBJECT_ID": "2017-062A", "EPOCH": "2025-12-02T08:37:38.758368", "MEAN_MOTION": 1.0025504, "ECCENTRICITY": 0.0752468, "INCLINATION": 40.2317, "RA_OF_ASC_NODE": 346.0052, "ARG_OF_PERICENTER": 271.2474, "MEAN_ANOMALY": 80.8165, "EPHEMERIS_TYPE": 0, "CLASSIFICATION_TYPE": "U", "NORAD_CAT_ID": 42965, "ELEMENT_SET_NO": 999, "REV_AT_EPOCH": 2983, "BSTAR": 0, "MEAN_MOTION_DOT": -3.15e-06, "MEAN_MOTION_DDOT": 0}, "tle": {"line1": "1 42965U 17062A   25336.35947637 -.00000315  00000+0  00000+0 0  9993", "line2": "2 42965  40.2317 346.0052 0752468 271.2474  80.8165  1.00255040 29831"}}, "geometry": {"type": "Point", "coordinates": [118.7474695193267, 31.834649590433383]}}, {"type": "Feature", "properties": {"norad_id": 43001, "name": "BEIDOU-3 M1 (C19)", "group": "gnss", "lat": 56.53558924446116, "lon": 160.59356913985482, "alt_km": 21542.072907281086, "timestamp": "2025-12-02T17:49:12.270419+00:00", "meta": {"OBJECT_NAME": "BEIDOU-3 M1 (C19)", "OBJECT_ID": "2017-069A", "EPOCH": "2025-12-02T01:41:27.564288", "MEAN_MOTION": 1.86230781, "ECCENTRICITY": 0.00087764, "INCLINATION": 56.5176, "RA_OF_ASC_NODE": 69.587, "ARG_OF_PERICENTER": 303.6575, "MEAN_ANOMALY": 56.2612, "EPHEMERIS_TYPE": 0, "CLASSIFICATION_TYPE": "U", "NORAD_CAT_ID": 43001, "ELEMENT_SET_NO": 999, "REV_AT_EPOCH": 5492, "BSTAR": 0, "MEAN_MOTION_DOT": -4.4e-07, "MEAN_MOTION_DDOT": 0}, "tle": {"line1": "1 43001U 17069A   25336.07045792 -.00000044  00000+0  00000+0 0  9991", "line2": "2 43001  56.5176  69.5870 0008776 303.6575  56.2612  1.86230781 54920"}}, "geometry": {"type": "Point", "coordinates": [160.59356913985482, 56.53558924446116]}}, {"type": "Feature", "properties": {"norad_id": 43002, "name": "BEIDOU-3 M2 (C20)", "group": "gnss", "lat": 38.358809718616776, "lon": -141.93728986285592, "alt_km": 21539.576078686317, "timestamp": "2025-12-02T17:49:12.270446+00:00", "meta": {"OBJECT_NAME": "BEIDOU-3 M2 (C20)", "OBJECT_ID": "2017-069B", "EPOCH": "2025-12-01T11:19:28.056000", "MEAN_MOTION": 1.86230616, "ECCENTRICITY": 0.00061649, "INCLINATION": 56.5166, "RA_OF_ASC_NODE": 69.6425, "ARG_OF_PERICENTER": 332.397, "MEAN_ANOMALY": 27.5733, "EPHEMERIS_TYPE": 0, "CLASSIFICATION_TYPE": "U", "NORAD_CAT_ID": 43002, "ELEMENT_SET_NO": 999, "REV_AT_EPOCH": 5491, "BSTAR": 0, "MEAN_MOTION_DOT": -4.1e-07, "MEAN_MOTION_DDOT": 0}, "tle": {"line1": "1 43002U 17069B   25335.47185250 -.00000041  00000+0  00000+0 0  9996", "line2": "2 43002  56.5166  69.6425 0006164 332.3970  27.5733  1.86230616 54915"}}, "geometry": {"type": "Point", "coordinates": [-141.93728986285592, 38.358809718616776]}}, {"type": "Feature", "properties": {"norad_id": 43055, "name": "GSAT0215 (GALILEO 19)", "group": "gnss", "lat": 30.160605953491455, "lon": 23.053490528646993, "alt_km": 23223.136628038406, "timestamp": "2025-12-02T17:49:12.270458+00:00", "meta": {"OBJECT_NAME": "GSAT0215 (GALILEO 19)", "OBJECT_ID": "2017-079A", "EPOCH": "2025-11-29T13:52:03.216864", "MEAN_MOTION": 1.70473718, "ECCENTRICITY": 0.0001588, "INCLINATION": 55.1353, "RA_OF_ASC_NODE": 227.0004, "ARG_OF_PERICENTER": 310.5234, "MEAN_ANOMALY": 49.536, "EPHEMERIS_TYPE": 0, "CLASSIFICATION_TYPE": "U", "NORAD_CAT_ID": 43055, "ELEMENT_SET_NO": 999, "REV_AT_EPOCH": 4958, "BSTAR": 0, "MEAN_MOTION_DOT": 2.7e-07, "MEAN_MOTION_DDOT": 0}, "tle": {"line1": "1 43055U 17079A   25333.57781501  .00000027  00000+0  00000+0 0  9998", "line2": "2 43055  55.1353 227.0004 0001588 310.5234  49.5360  1.70473718 49587"}}, "geometry": {"type": "Point", "coordinates": [23.053490528646993, 30.160605953491455]}}, {"type": "Feature", "properties": {"norad_id": 43056, "name": "GSAT0216 (GALILEO 20)", "group": "gnss", "lat": -29.26963434217234, "lon": -156.05055682995584, "alt_km": 23218.065572663872, "timestamp": "2025-12-02T17:49:12.270474+00:00", "meta": {"OBJECT_NAME": "GSAT0216 (GALILEO 20)", "OBJECT_ID": "2017-079B", "EPOCH": "2025-12-01T01:00:54.249120", "MEAN_MOTION": 1.70473856, "ECCENTRICITY": 0.00027137, "INCLINATION": 55.1346, "RA_OF_ASC_NODE": 226.9601, "ARG_OF_PERICENTER": 312.5245, "MEAN_ANOMALY": 47.5297, "EPHEMERIS_TYPE": 0, "CLASSIFICATION_TYPE": "U", "NORAD_CAT_ID": 43056, "ELEMENT_SET_NO": 999, "REV_AT_EPOCH": 4962, "BSTAR": 0, "MEAN_MOTION_DOT": 3.1e-07, "MEAN_MOTION_DDOT": 0}, "tle": {"line1": "1 43056U 17079B   25335.04229455  .00000031  00000+0  00000+0 0  9993", "line2": "2 43056  55.1346 226.9601 0002713 312.5245  47.5297  1.70473856 49621"}}, "geometry": {"type": "Point", "coordinates": [-156.05055682995584, -29.26963434217234]}}, {"type": "Feature", "properties": {"norad_id": 43057, "name": "GSAT0217 (GALILEO 21)", "group": "gnss", "lat": -6.566872512704476, "lon": 51.50969703583382, "alt_km": 23230.595677521327, "timestamp": "2025-12-02T17:49:12.270486+00:00", "meta": {"OBJECT_NAME": "GSAT0217 (GALILEO 21)", "OBJECT_ID": "2017-079C", "EPOCH": "2025-11-29T12:04:41.145600", "MEAN_MOTION": 1.70473704, "ECCENTRICITY": 0.00027563, "INCLINATION": 55.1326, "RA_OF_ASC_NODE": 227.0006, "ARG_OF_PERICENTER": 340.6935, "MEAN_ANOMALY": 19.3693, "EPHEMERIS_TYPE": 0, "CLASSIFICATION_TYPE": "U", "NORAD_CAT_ID": 43057, "ELEMENT_SET_NO": 999, "REV_AT_EPOCH": 4958, "BSTAR": 0, "MEAN_MOTION_DOT": 2.7e-07, "MEAN_MOTION_DDOT": 0}, "tle": {"line1": "1 43057U 17079C   25333.50325400  .00000027  00000+0  00000+0 0  9995", "line2": "2 43057  55.1326 227.0006 0002756 340.6935  19.3693  1.70473704 49580"}}, "geometry": {"type": "Point", "coordinates": [51.50969703583382, -6.566872512704476]}}, {"type": "Feature", "properties": {"norad_id": 43058, "name": "GSAT0218 (GALILEO 22)", "group": "gnss", "lat": 40.92347739984759, "lon": -95.96485079684669, "alt_km": 23220.10510549216, "timestamp": "2025-12-02T17:49:12.270536+00:00", "meta": {"OBJECT_NAME": "GSAT0218 (GALILEO 22)", "OBJECT_ID": "2017-079D", "EPOCH": "2025-11-30T07:26:14.163360", "MEAN_MOTION": 1.70473798, "ECCENTRICITY": 0.0002943, "INCLINATION": 55.1332, "RA_OF_ASC_NODE": 226.9759, "ARG_OF_PERICENTER": 303.6931, "MEAN_ANOMALY": 56.3534, "EPHEMERIS_TYPE": 0, "CLASSIFICATION_TYPE": "U", "NORAD_CAT_ID": 43058, "ELEMENT_SET_NO": 999, "REV_AT_EPOCH": 4962, "BSTAR": 0, "MEAN_MOTION_DOT": 2.9e-07, "MEAN_MOTION_DDOT": 0}, "tle": {"line1": "1 43058U 17079D   25334.30988615  .00000029  00000+0  00000+0 0  9990", "line2": "2 43058  55.1332 226.9759 0002943 303.6931  56.3534  1.70473798 49627"}}, "geometry": {"type": "Point", "coordinates": [-95.96485079684669, 40.92347739984759]}}, {"type": "Feature", "properties": {"norad_id": 43107, "name": "BEIDOU-3 M7 (C27)", "group": "gnss", "lat": -42.38421587518914, "lon": -91.47695033504426, "alt_km": 21537.213600936986, "timestamp": "2025-12-02T17:49:12.270550+00:00", "meta": {"OBJECT_NAME": "BEIDOU-3 M7 (C27)", "OBJECT_ID": "2018-003A", "EPOCH": "2025-12-02T06:56:05.635968", "MEAN_MOTION": 1.86232265, "ECCENTRICITY": 0.0002591, "INCLINATION": 54.5061, "RA_OF_ASC_NODE": 309.1785, "ARG_OF_PERICENTER": 70.8685, "MEAN_ANOMALY": 289.1495, "EPHEMERIS_TYPE": 0, "CLASSIFICATION_TYPE": "U", "NORAD_CAT_ID": 43107, "ELEMENT_SET_NO": 999, "REV_AT_EPOCH": 5368, "BSTAR": 0, "MEAN_MOTION_DOT": -6.3e-07, "MEAN_MOTION_DDOT": 0}, "tle": {"line1": "1 43107U 18003A   25336.28895412 -.00000063  00000+0  00000+0 0  9993", "line2": "2 43107  54.5061 309.1785 0002591  70.8685 289.1495  1.86232265 53687"}}, "geometry": {"type": "Point", "coordinates": [-91.47695033504426, -42.38421587518914]}}]}